CUBEBUG-2 (LO-74)       
1 39440U 13066AA  26165.11577809  .00004533  00000+0  41941-3 0  9990
2 39440  97.8903 114.0809 0058614  38.9303 321.6115 14.93738647676539
FUNCUBE-1 (AO-73)       
1 39444U 13066AE  26164.87461990  .00007372  00000+0  45803-3 0  9994
2 39444  97.8267 136.2511 0035377 212.6416 147.2626 15.09452478679163
UWE-3                   
1 39446U 13066AG  26164.80677422  .00004526  00000+0  38955-3 0  9996
2 39446  97.8688 120.8577 0048115 332.4032  27.4636 14.96999955677071
UNISAT-6                
1 40012U 14033C   26165.10773015  .00003070  00000+0  33204-3 0  9996
2 40012  97.7871 317.8739 0046328  79.1987 281.4440 14.88231889645707
DUCHIFAT-1              
1 40021U 14033M   26165.14309872  .00112865  00000+0  11822-2 0  9990
2 40021  98.0474 223.8762 0003417 119.3968 240.7631 15.64039026655277
QB50P1                  
1 40025U 14033R   26164.98653312  .00008764  00000+0  43164-3 0  9993
2 40025  98.0960 175.9078 0007562 228.0389 132.0200 15.18216590652542
LILACSAT-2              
1 40908U 15049K   26165.17625778  .00017413  00000+0  29746-3 0  9999
2 40908  97.4649 201.9032 0005354 259.3379 100.7270 15.51356675595284
FOX-1A (AO-85)          
1 40967U 15058D   26165.06588971  .00002476  00000+0  22792-3 0  9992
2 40967  64.7761 288.6834 0130258  57.8004 303.5661 14.90956726113100
CAS-2T & KS-1Q          
1 41847U 16066G   26165.19312684  .00001608  00000+0  23241-3 0  9996
2 41847  98.3820 240.9636 0342703 138.5317 224.2432 14.44685244504362
RADFXSAT (FOX-1B)       
1 43017U 17073E   26165.16518689  .00008607  00000+0  37613-3 0  9990
2 43017  97.4711  32.4423 0150020 339.7576  19.7744 15.12676252464937
DIWATA-2B               
1 43678U 18084H   26165.16891255  .00002535  00000+0  20647-3 0  9992
2 43678  98.1178   1.2463 0012301 179.9553 180.1673 15.00439470415768
ES'HAIL 2               
1 43700U 18090A   26165.12351647  .00000153  00000+0  00000+0 0  9998
2 43700   0.0151   6.1275 0001525 117.1684 209.3955  1.00269053 27643
FOX-1CLIFF (AO-95)      
1 43770U 18099N   26165.12822933  .00011968  00000+0  45845-3 0  9991
2 43770  97.4390 225.3853 0008298   9.0334 351.1052 15.26654463412757
ITASAT                  
1 43786U 18099AE  26165.12326007  .00006642  00000+0  31978-3 0  9994
2 43786  97.4033 216.6958 0012428  11.1997 348.9512 15.19023460412446
JY1SAT (JO-97)          
1 43803U 18099AX  26165.15960116  .00016674  00000+0  51563-3 0  9990
2 43803  97.4134 227.9830 0004214 277.2169  82.8595 15.33568110413169
UWE-4                   
1 43880U 18111E   26164.78477083  .00034468  00000+0  70749-3 0  9992
2 43880  97.5857  93.0195 0006131 357.5273   2.5945 15.45933781410259
TIANYAN 01              
1 44881U 19093C   26165.15030662  .00001003  00000+0  11919-3 0  9997
2 44881  97.7536 237.4560 0015044  96.1580 264.1350 14.86514601350964
RS-44 & BREEZE-KM R/B   
1 44909U 19096E   26165.19066042  .00000023  00000+0  42004-4 0  9997
2 44909  82.5218 341.6965 0218056 151.1526 210.1839 12.79748810301961
SALSAT                  
1 46495U 20068K   26165.00581426  .00008178  00000+0  28632-3 0  9997
2 46495  97.8843 167.8766 0008281 321.5879  38.4769 15.29759103314876
XW-3 (CAS-9)            
1 50466U 21131B   26165.20842234  .00000520  00000+0  17409-3 0  9994
2 50466  98.4982 257.6139 0005347 103.5043 256.6742 14.41355076234682
GREENCUBE (IO-117)      
1 53109U 22080E   26164.29338770 -.00000003  00000+0  00000+0 0  9990
2 53109  70.1444 299.5995 0008910 290.4576  69.5127  6.42583230 91811
UMKA 1 (RS40S)          
1 57172U 23091G   26165.19886139  .00006176  00000+0  28271-3 0  9994
2 57172  97.5056 223.9073 0014132 126.9272 233.3260 15.20787062163559
CUBESX-HSE 3 (RS42S)    
1 57178U 23091N   26165.16769365  .00013231  00000+0  44110-3 0  9998
2 57178  97.5100 230.7164 0012109 103.9551 256.3038 15.31147442163966
MONITOR-3 (RS58S)       
1 57180U 23091Q   26165.18553528  .00011479  00000+0  42448-3 0  9999
2 57180  97.5090 228.6090 0013109 109.9740 250.2912 15.27789290163836
MONITOR-4 (RS57S)       
1 57182U 23091S   26165.16475887  .00009957  00000+0  36769-3 0  9997
2 57182  97.5085 228.5594 0013123 110.3785 249.8865 15.27874419163830
MONITOR-2 (RS39S)       
1 57184U 23091U   26165.15049125  .00005092  00000+0  24696-3 0  9992
2 57184  97.5078 223.4529 0012652 120.2773 239.9715 15.18886100163495
SVYATOBOR 1 (RS60S)     
1 57187U 23091X   26165.10971659  .00009962  00000+0  38293-3 0  9994
2 57187  97.5096 228.9095 0010906 103.6026 256.6428 15.26569436163847
VIZARD-METEO (RS38S)    
1 57189U 23091Z   26165.15085964  .00018782  00000+0  53792-3 0  9997
2 57189  97.5100 234.5749 0008437  86.7050 273.5158 15.35941135164229
POLYTECH-UNIVERSE 3 (R*)
1 57191U 23091AB  26165.17809579  .00005545  00000+0  26667-3 0  9992
2 57191  97.5053 222.9847 0016707 136.3361 223.9198 15.19087308163491
UTMN 2 (RS27S)          
1 57203U 23091AP  26165.12161530  .00014353  00000+0  46635-3 0  9993
2 57203  97.5096 232.2999 0009417  92.9441 267.2878 15.31985939164072
